[{"OBJECT_NAME":"POLYITAN-1","OBJECT_ID":"2014-033AJ","EPOCH":"2026-03-09T22:27:50.258304","MEAN_MOTION":15.29568085,"ECCENTRICITY":0.00093607,"INCLINATION":98.1053,"RA_OF_ASC_NODE":86.0432,"ARG_OF_PERICENTER":127.248,"MEAN_ANOMALY":232.9614,"EPHEMERIS_TYPE":0,"CLASSIFICATION_TYPE":"U","NORAD_CAT_ID":40042,"ELEMENT_SET_NO":999,"REV_AT_EPOCH":63840,"BSTAR":0.00083772474,"MEAN_MOTION_DOT":0.00024003,"MEAN_MOTION_DDOT":0},{"OBJECT_NAME":"STARLINK-31430","OBJECT_ID":"2024-062B","EPOCH":"2026-03-09T21:26:03.255936","MEAN_MOTION":15.30197499,"ECCENTRICITY":0.00010307,"INCLINATION":53.1582,"RA_OF_ASC_NODE":257.4825,"ARG_OF_PERICENTER":130.7995,"MEAN_ANOMALY":229.3095,"EPHEMERIS_TYPE":0,"CLASSIFICATION_TYPE":"U","NORAD_CAT_ID":59375,"ELEMENT_SET_NO":999,"REV_AT_EPOCH":10966,"BSTAR":-7.095733e-5,"MEAN_MOTION_DOT":-2.46e-5,"MEAN_MOTION_DDOT":0}]
